IRIDIUM 166             
1 43570U 18061B   24339.40266047  .00000481  00000+0  16452-3 0  9998
2 43570  86.3947 290.6535 0001909  79.9571 280.1840 14.34216261333164
IRIDIUM 158             
1 43571U 18061C   24339.58025718  .00000668  00000+0  23153-3 0  9999
2 43571  86.3945 290.5888 0002316  79.7498 280.3959 14.34212140333156
IRIDIUM 165             
1 43572U 18061D   24339.60562872  .00000470  00000+0  16059-3 0  9998
2 43572  86.3949 290.6140 0002180  87.9821 272.1624 14.34216038333184
IRIDIUM 155             
1 43573U 18061E   24339.35826467  .00000244  00000+0  80039-4 0  9993
2 43573  86.3948 290.6145 0002058  77.6525 282.4901 14.34220181333119
IRIDIUM 154             
1 43574U 18061F   24339.40900802  .00000512  00000+0  17573-3 0  9996
2 43574  86.3951 290.6989 0002202  87.8629 272.2819 14.34215824333178
IRIDIUM 163             
1 43575U 18061G   24339.38998367  .00000826  00000+0  28784-3 0  9991
2 43575  86.3948 290.6398 0002327  80.9941 279.1518 14.34224266333147
IRIDIUM 156             
1 43576U 18061H   24339.57391788  .00000593  00000+0  20456-3 0  9996
2 43576  86.3945 290.5697 0002026  76.0200 284.1221 14.34217759333164
IRIDIUM 164             
1 43577U 18061J   24339.41533996  .00000779  00000+0  27097-3 0  9993
2 43577  86.3945 290.6669 0001898  89.4218 270.7195 14.34215107333186
